[{"OBJECT_NAME":"ARIRANG-5 (KOMPSAT-5)","OBJECT_ID":"2013-042A","EPOCH":"2026-03-10T00:02:57.181344","MEAN_MOTION":15.04553599,"ECCENTRICITY":0.00039005,"INCLINATION":97.62,"RA_OF_ASC_NODE":257.0804,"ARG_OF_PERICENTER":111.6826,"MEAN_ANOMALY":248.4816,"EPHEMERIS_TYPE":0,"CLASSIFICATION_TYPE":"U","NORAD_CAT_ID":39227,"ELEMENT_SET_NO":999,"REV_AT_EPOCH":68894,"BSTAR":0.00023956705,"MEAN_MOTION_DOT":3.298e-5,"MEAN_MOTION_DDOT":0},{"OBJECT_NAME":"STARLINK-30352","OBJECT_ID":"2023-131E","EPOCH":"2026-03-09T07:50:02.268960","MEAN_MOTION":15.02534219,"ECCENTRICITY":0.00014572,"INCLINATION":43.0043,"RA_OF_ASC_NODE":173.4098,"ARG_OF_PERICENTER":271.2649,"MEAN_ANOMALY":88.8026,"EPHEMERIS_TYPE":0,"CLASSIFICATION_TYPE":"U","NORAD_CAT_ID":57736,"ELEMENT_SET_NO":999,"REV_AT_EPOCH":13987,"BSTAR":4.0658673e-5,"MEAN_MOTION_DOT":3.46e-6,"MEAN_MOTION_DDOT":0}]
